{
    "links": {
        "self": "http://www.neowsapp.com/rest/v1/neo/3789635?api_key=iIulBulltgU6a56xZRHN4H3l9WmuAYTsLGpBGhQ2"
    },
    "id": "3789635",
    "neo_reference_id": "3789635",
    "name": "(2017 WY13)",
    "designation": "2017 WY13",
    "nasa_jpl_url": "http://ssd.jpl.nasa.gov/sbdb.cgi?sstr=3789635",
    "absolute_magnitude_h": 21.4,
    "estimated_diameter": {
        "kilometers": {
            "estimated_diameter_min": 0.1394938229,
            "estimated_diameter_max": 0.3119176705
        },
        "meters": {
            "estimated_diameter_min": 139.4938229344,
            "estimated_diameter_max": 311.9176705226
        },
        "miles": {
            "estimated_diameter_min": 0.0866774163,
            "estimated_diameter_max": 0.1938165949
        },
        "feet": {
            "estimated_diameter_min": 457.6569140361,
            "estimated_diameter_max": 1023.3519701574
        }
    },
    "is_potentially_hazardous_asteroid": false,
    "close_approach_data": [
        {
            "close_approach_date": "2000-07-22",
            "close_approach_date_full": "2000-Jul-22 13:54",
            "epoch_date_close_approach": 964274040000,
            "relative_velocity": {
                "kilometers_per_second": "10.4841365973",
                "kilometers_per_hour": "37742.8917502526",
                "miles_per_hour": "23451.9651544834"
            },
            "miss_distance": {
                "astronomical": "0.34589404",
                "lunar": "134.55278156",
                "kilometers": "51745011.6296948",
                "miles": "32152859.27879624"
            },
            "orbiting_body": "Earth"
        },
        {
            "close_approach_date": "2017-11-13",
            "close_approach_date_full": "2017-Nov-13 11:30",
            "epoch_date_close_approach": 1510572600000,
            "relative_velocity": {
                "kilometers_per_second": "17.7770994878",
                "kilometers_per_hour": "63997.558156084",
                "miles_per_hour": "39765.5938442623"
            },
            "miss_distance": {
                "astronomical": "0.1366698798",
                "lunar": "53.1645832422",
                "kilometers": "20445522.911236026",
                "miles": "12704258.8327321188"
            },
            "orbiting_body": "Earth"
        },
        {
            "close_approach_date": "2034-11-29",
            "close_approach_date_full": "2034-Nov-29 02:30",
            "epoch_date_close_approach": 2048380200000,
            "relative_velocity": {
                "kilometers_per_second": "26.389555405",
                "kilometers_per_hour": "95002.3994579323",
                "miles_per_hour": "59030.7964854024"
            },
            "miss_distance": {
                "astronomical": "0.4037566333",
                "lunar": "157.0613303537",
                "kilometers": "60401132.340051071",
                "miles": "37531523.2762479398"
            },
            "orbiting_body": "Earth"
        },
        {
            "close_approach_date": "2041-07-02",
            "close_approach_date_full": "2041-Jul-02 18:27",
            "epoch_date_close_approach": 2256402420000,
            "relative_velocity": {
                "kilometers_per_second": "20.2634397395",
                "kilometers_per_hour": "72948.383062083",
                "miles_per_hour": "45327.2883532149"
            },
            "miss_distance": {
                "astronomical": "0.3525531878",
                "lunar": "137.1431900542",
                "kilometers": "52741205.956589986",
                "miles": "32771865.7298183668"
            },
            "orbiting_body": "Earth"
        }
    ],
    "orbital_data": {
        "orbit_id": "8",
        "orbit_determination_date": "2018-01-01 06:22:00",
        "first_observation_date": "2017-11-22",
        "last_observation_date": "2017-12-21",
        "data_arc_in_days": 29,
        "observations_used": 130,
        "orbit_uncertainty": "6",
        "minimum_orbit_intersection": ".130218",
        "jupiter_tisserand_invariant": "3.285",
        "epoch_osculation": "2459000.5",
        "eccentricity": ".6020841715588068",
        "semi_major_axis": "2.265434182079097",
        "inclination": "20.25019289151962",
        "ascending_node_longitude": "244.6445547037412",
        "orbital_period": "1245.448002688248",
        "perihelion_distance": ".9014521193410009",
        "perihelion_argument": "108.8370184714846",
        "aphelion_distance": "3.629416244817193",
        "perihelion_time": "2459274.258207538647",
        "mean_anomaly": "280.8694746780351",
        "mean_motion": ".2890526133752311",
        "equinox": "J2000",
        "orbit_class": {
            "orbit_class_type": "APO",
            "orbit_class_description": "Near-Earth asteroid orbits which cross the Earth’s orbit similar to that of 1862 Apollo",
            "orbit_class_range": "a (semi-major axis) > 1.0 AU; q (perihelion) < 1.017 AU"
        }
    },
    "is_sentry_object": false
}